[{"OBJECT_NAME":"ONEWEB-0018","OBJECT_ID":"2020-020L","EPOCH":"2026-03-09T22:56:21.853536","MEAN_MOTION":13.11418732,"ECCENTRICITY":0.00018027,"INCLINATION":87.8868,"RA_OF_ASC_NODE":40.7954,"ARG_OF_PERICENTER":88.1848,"MEAN_ANOMALY":271.9486,"EPHEMERIS_TYPE":0,"CLASSIFICATION_TYPE":"U","NORAD_CAT_ID":45434,"ELEMENT_SET_NO":999,"REV_AT_EPOCH":28962,"BSTAR":-0.00088828851,"MEAN_MOTION_DOT":-3.02e-6,"MEAN_MOTION_DDOT":0},{"OBJECT_NAME":"DELTA 1 DEB","OBJECT_ID":"1975-052EM","EPOCH":"2026-03-09T22:14:25.171008","MEAN_MOTION":13.268989,"ECCENTRICITY":0.01187124,"INCLINATION":99.8505,"RA_OF_ASC_NODE":224.5635,"ARG_OF_PERICENTER":302.0692,"MEAN_ANOMALY":184.9338,"EPHEMERIS_TYPE":0,"CLASSIFICATION_TYPE":"U","NORAD_CAT_ID":21453,"ELEMENT_SET_NO":999,"REV_AT_EPOCH":68560,"BSTAR":0.0006944758,"MEAN_MOTION_DOT":2.79e-6,"MEAN_MOTION_DDOT":0}]
